[{"OBJECT_NAME":"STARLINK-35010","OBJECT_ID":"2025-184J","EPOCH":"2026-03-09T16:37:03.145728","MEAN_MOTION":15.05647472,"ECCENTRICITY":9.62e-6,"INCLINATION":97.6041,"RA_OF_ASC_NODE":122.6981,"ARG_OF_PERICENTER":282.6242,"MEAN_ANOMALY":77.4974,"EPHEMERIS_TYPE":0,"CLASSIFICATION_TYPE":"U","NORAD_CAT_ID":65281,"ELEMENT_SET_NO":999,"REV_AT_EPOCH":3130,"BSTAR":0.00036660539,"MEAN_MOTION_DOT":5.233e-5,"MEAN_MOTION_DDOT":0},{"OBJECT_NAME":"TITAN 4B R\/B","OBJECT_ID":"2000-047B","EPOCH":"2026-03-09T21:29:16.286496","MEAN_MOTION":15.09565128,"ECCENTRICITY":0.00386241,"INCLINATION":67.9901,"RA_OF_ASC_NODE":39.932,"ARG_OF_PERICENTER":35.1583,"MEAN_ANOMALY":325.2103,"EPHEMERIS_TYPE":0,"CLASSIFICATION_TYPE":"U","NORAD_CAT_ID":26474,"ELEMENT_SET_NO":999,"REV_AT_EPOCH":39294,"BSTAR":0.00034805691,"MEAN_MOTION_DOT":5.567e-5,"MEAN_MOTION_DDOT":0}]
